start=new Date('2021-12-11T00:00:00.000Z').valueOf();
sats=[{"SEMIMAJOR_AXIS":"6925.340","ELEMENT_SET_NO":"999","TLE_LINE2":"2 46726  53.0569 359.6241 0007238  66.2409 293.9338 15.06402904 63515","OBJECT_TYPE":"PAYLOAD","LAUNCH_DATE":"2020-10-18","RA_OF_ASC_NODE":"359.6241","ARG_OF_PERICENTER":"66.2409","EPOCH":"2021-12-10T17:43:22.476576","FILE":"3237005","ECCENTRICITY":"0.00072380","NORAD_CAT_ID":"46726","APOAPSIS":"552.217","MEAN_MOTION_DDOT":"0.0000000000000","RCS_SIZE":"LARGE","OBJECT_NAME":"STARLINK-1829","MEAN_MOTION":"15.06402904","SITE":"AFETR","EPHEMERIS_TYPE":"0","CLASSIFICATION_TYPE":"U","TLE_LINE1":"1 46726U 20073BJ  21344.73845459  .00001195  00000-0  99190-4 0  9994","MEAN_ELEMENT_THEORY":"SGP4","MEAN_MOTION_DOT":"0.00001195","DECAY_DATE":null,"INCLINATION":"53.0569","GP_ID":"191458764","COUNTRY_CODE":"US","CENTER_NAME":"EARTH","OBJECT_ID":"2020-073BJ","REF_FRAME":"TEME","PERIOD":"95.592","PERIAPSIS":"542.192","MEAN_ANOMALY":"293.9338","BSTAR":"0.00009919000000","REV_AT_EPOCH":"6351","TIME_SYSTEM":"UTC"},{"GP_ID":"191459515","INCLINATION":"53.0546","REF_FRAME":"TEME","PERIOD":"95.592","COUNTRY_CODE":"US","CENTER_NAME":"EARTH","OBJECT_ID":"2020-073BK","MEAN_MOTION_DOT":"-0.00000696","TLE_LINE1":"1 46727U 20073BK  21344.69468378 -.00000696  00000-0 -27801-4 0  9998","MEAN_ELEMENT_THEORY":"SGP4","DECAY_DATE":null,"MEAN_ANOMALY":"304.8823","REV_AT_EPOCH":"6386","TIME_SYSTEM":"UTC","BSTAR":"-0.00002780100000","PERIAPSIS":"546.044","EPOCH":"2021-12-10T16:40:20.678592","FILE":"3237005","ARG_OF_PERICENTER":"55.2327","ECCENTRICITY":"0.00017120","NORAD_CAT_ID":"46727","ELEMENT_SET_NO":"999","SEMIMAJOR_AXIS":"6925.364","LAUNCH_DATE":"2020-10-18","TLE_LINE2":"2 46727  53.0546 334.8079 0001712  55.2327 304.8823 15.06394921 63861","OBJECT_TYPE":"PAYLOAD","RA_OF_ASC_NODE":"334.8079","CLASSIFICATION_TYPE":"U","EPHEMERIS_TYPE":"0","SITE":"AFETR","MEAN_MOTION_DDOT":"0.0000000000000","RCS_SIZE":"LARGE","APOAPSIS":"548.415","MEAN_MOTION":"15.06394921","OBJECT_NAME":"STARLINK-1830"},{"DECAY_DATE":null,"TLE_LINE1":"1 46728U 20073BL  21344.30574391  .00084244  00000-0  88366-3 0  9991","MEAN_ELEMENT_THEORY":"SGP4","MEAN_MOTION_DOT":"0.00084244","COUNTRY_CODE":"US","CENTER_NAME":"EARTH","OBJECT_ID":"2020-073BL","PERIOD":"92.091","REF_FRAME":"TEME","GP_ID":"191427258","INCLINATION":"53.0534","PERIAPSIS":"373.818","BSTAR":"0.00088366000000","REV_AT_EPOCH":"6391","TIME_SYSTEM":"UTC","MEAN_ANOMALY":"269.1414","TLE_LINE2":"2 46728  53.0534 328.3255 0004803  91.0150 269.1414 15.63672004 63918","LAUNCH_DATE":"2020-10-18","OBJECT_TYPE":"PAYLOAD","RA_OF_ASC_NODE":"328.3255","SEMIMAJOR_AXIS":"6755.198","ELEMENT_SET_NO":"999","ECCENTRICITY":"0.00048030","NORAD_CAT_ID":"46728","ARG_OF_PERICENTER":"91.0150","EPOCH":"2021-12-10T07:20:16.273824","FILE":"3236672","OBJECT_NAME":"STARLINK-1831","MEAN_MOTION":"15.63672004","APOAPSIS":"380.307","MEAN_MOTION_DDOT":"0.0000000000000","RCS_SIZE":"LARGE","EPHEMERIS_TYPE":"0","SITE":"AFETR","CLASSIFICATION_TYPE":"U"},{"MEAN_MOTION_DDOT":"0.0000000000000","RCS_SIZE":"LARGE","APOAPSIS":"547.980","MEAN_MOTION":"15.06394842","OBJECT_NAME":"STARLINK-1848","CLASSIFICATION_TYPE":"U","SITE":"AFETR","EPHEMERIS_TYPE":"0","ELEMENT_SET_NO":"999","SEMIMAJOR_AXIS":"6925.364","TLE_LINE2":"2 46740  53.0570  84.7063 0001084  80.3139 279.7972 15.06394842 62988","LAUNCH_DATE":"2020-10-24","OBJECT_TYPE":"PAYLOAD","RA_OF_ASC_NODE":"84.7063","EPOCH":"2021-12-10T17:18:49.458528","FILE":"3237005","ARG_OF_PERICENTER":"80.3139","ECCENTRICITY":"0.00010840","NORAD_CAT_ID":"46740","PERIAPSIS":"546.479","MEAN_ANOMALY":"279.7972","TIME_SYSTEM":"UTC","REV_AT_EPOCH":"6298","BSTAR":"-0.00003002500000","MEAN_MOTION_DOT":"-0.00000728","TLE_LINE1":"1 46740U 20074B   21344.72140577 -.00000728  00000-0 -30025-4 0  9994","MEAN_ELEMENT_THEORY":"SGP4","DECAY_DATE":null,"INCLINATION":"53.0570","GP_ID":"191458514","PERIOD":"95.592","REF_FRAME":"TEME","COUNTRY_CODE":"US","CENTER_NAME":"EARTH","OBJECT_ID":"2020-074B"},{"MEAN_ANOMALY":"280.9711","BSTAR":"0.00007315400000","REV_AT_EPOCH":"6305","TIME_SYSTEM":"UTC","PERIAPSIS":"546.389","INCLINATION":"53.0550","GP_ID":"191458765","COUNTRY_CODE":"US","OBJECT_ID":"2020-074C","CENTER_NAME":"EARTH","REF_FRAME":"TEME","PERIOD":"95.592","TLE_LINE1":"1 46741U 20074C   21344.67209590  .00000808  00000-0  73154-4 0  9997","MEAN_ELEMENT_THEORY":"SGP4","MEAN_MOTION_DOT":"0.00000808","DECAY_DATE":null,"EPHEMERIS_TYPE":"0","SITE":"AFETR","CLASSIFICATION_TYPE":"U","APOAPSIS":"548.033","MEAN_MOTION_DDOT":"0.0000000000000","RCS_SIZE":"LARGE","OBJECT_NAME":"STARLINK-1865","MEAN_MOTION":"15.06400923","ARG_OF_PERICENTER":"79.1411","EPOCH":"2021-12-10T16:07:49.085760","FILE":"3237005","ECCENTRICITY":"0.00011870","NORAD_CAT_ID":"46741","SEMIMAJOR_AXIS":"6925.346","ELEMENT_SET_NO":"999","LAUNCH_DATE":"2020-10-24","TLE_LINE2":"2 46741  53.0550  79.9195 0001187  79.1411 280.9711 15.06400923 63054","OBJECT_TYPE":"PAYLOAD","RA_OF_ASC_NODE":"79.9195"},{"SITE":"AFETR","EPHEMERIS_TYPE":"0","CLASSIFICATION_TYPE":"U","OBJECT_NAME":"STARLINK-1872","MEAN_MOTION":"15.06388272","APOAPSIS":"547.975","RCS_SIZE":"LARGE","MEAN_MOTION_DDOT":"0.0000000000000","NORAD_CAT_ID":"46742","ECCENTRICITY":"0.00010470","ARG_OF_PERICENTER":"86.1675","FILE":"3236975","EPOCH":"2021-12-10T23:23:04.253856","RA_OF_ASC_NODE":"78.5514","LAUNCH_DATE":"2020-10-24","TLE_LINE2":"2 46742  53.0559  78.5514 0001047  86.1675 273.9433 15.06388272 63111","OBJECT_TYPE":"PAYLOAD","SEMIMAJOR_AXIS":"6925.385","ELEMENT_SET_NO":"999","BSTAR":"-0.00003147300000","REV_AT_EPOCH":"6311","TIME_SYSTEM":"UTC","MEAN_ANOMALY":"273.9433","PERIAPSIS":"546.524","OBJECT_ID":"2020-074D","CENTER_NAME":"EARTH","COUNTRY_CODE":"US","REF_FRAME":"TEME","PERIOD":"95.593","INCLINATION":"53.0559","GP_ID":"191436461","DECAY_DATE":null,"MEAN_ELEMENT_THEORY":"SGP4","TLE_LINE1":"1 46742U 20074D   21344.97435479 -.00000750  00000-0 -31473-4 0  9994","MEAN_MOTION_DOT":"-0.00000750"},{"INCLINATION":"53.0547","GP_ID":"191427259","REF_FRAME":"TEME","PERIOD":"95.592","CENTER_NAME":"EARTH","OBJECT_ID":"2020-074E","COUNTRY_CODE":"US","MEAN_MOTION_DOT":"-0.00000035","MEAN_ELEMENT_THEORY":"SGP4","TLE_LINE1":"1 46743U 20074E   21344.53204818 -.00000035  00000-0  16656-4 0  9999","DECAY_DATE":null,"MEAN_ANOMALY":"237.4992","REV_AT_EPOCH":"6303","TIME_SYSTEM":"UTC","BSTAR":"0.00001665600000","PERIAPSIS":"543.916","FILE":"3236672","EPOCH":"2021-12-10T12:46:08.962752","ARG_OF_PERICENTER":"122.6459","NORAD_CAT_ID":"46743","ECCENTRICITY":"0.00047800","ELEMENT_SET_NO":"999","SEMIMAJOR_AXIS":"6925.362","RA_OF_ASC_NODE":"80.5418","TLE_LINE2":"2 46743  53.0547  80.5418 0004780 122.6459 237.4992 15.06395765 63039","OBJECT_TYPE":"PAYLOAD","LAUNCH_DATE":"2020-10-24","CLASSIFICATION_TYPE":"U","EPHEMERIS_TYPE":"0","SITE":"AFETR","RCS_SIZE":"LARGE","MEAN_MOTION_DDOT":"0.0000000000000","APOAPSIS":"550.537","MEAN_MOTION":"15.06395765","OBJECT_NAME":"STARLINK-1892"},{"GP_ID":"191458014","INCLINATION":"53.0542","OBJECT_ID":"2020-074F","CENTER_NAME":"EARTH","COUNTRY_CODE":"US","REF_FRAME":"TEME","PERIOD":"95.592","MEAN_ELEMENT_THEORY":"SGP4","TLE_LINE1":"1 46744U 20074F   21344.68315842 -.00000408  00000-0 -84739-5 0  9999","MEAN_MOTION_DOT":"-0.00000408","DECAY_DATE":null,"MEAN_ANOMALY":"279.8727","BSTAR":"-0.00000847390000","REV_AT_EPOCH":"6305","TIME_SYSTEM":"UTC","PERIAPSIS":"546.317","ARG_OF_PERICENTER":"80.2409","FILE":"3237005","EPOCH":"2021-12-10T16:23:44.887488","NORAD_CAT_ID":"46744","ECCENTRICITY":"0.00013030","SEMIMAJOR_AXIS":"6925.354","ELEMENT_SET_NO":"999","RA_OF_ASC_NODE":"79.8598","TLE_LINE2":"2 46744  53.0542  79.8598 0001303  80.2409 279.8727 15.06398145 63050","LAUNCH_DATE":"2020-10-24","OBJECT_TYPE":"PAYLOAD","EPHEMERIS_TYPE":"0","SITE":"AFETR","CLASSIFICATION_TYPE":"U","APOAPSIS":"548.122","RCS_SIZE":"LARGE","MEAN_MOTION_DDOT":"0.0000000000000","OBJECT_NAME":"STARLINK-1894","MEAN_MOTION":"15.06398145"},{"MEAN_MOTION_DOT":"0.00022298","TLE_LINE1":"1 46745U 20074G   21344.62773916  .00022298  00000-0  51454-3 0  9999","MEAN_ELEMENT_THEORY":"SGP4","DECAY_DATE":null,"GP_ID":"191459266","INCLINATION":"53.0554","REF_FRAME":"TEME","PERIOD":"93.355","COUNTRY_CODE":"US","OBJECT_ID":"2020-074G","CENTER_NAME":"EARTH","PERIAPSIS":"437.105","MEAN_ANOMALY":"322.3518","REV_AT_EPOCH":"6312","TIME_SYSTEM":"UTC","BSTAR":"0.00051454000000","ELEMENT_SET_NO":"999","SEMIMAJOR_AXIS":"6816.887","TLE_LINE2":"2 46745  53.0554  74.3520 0002416  37.7656 322.3518 15.42494554 63127","LAUNCH_DATE":"2020-10-24","OBJECT_TYPE":"PAYLOAD","RA_OF_ASC_NODE":"74.3520","EPOCH":"2021-12-10T15:03:56.663424","FILE":"3237005","ARG_OF_PERICENTER":"37.7656","ECCENTRICITY":"0.00024160","NORAD_CAT_ID":"46745","MEAN_MOTION_DDOT":"0.0000000000000","RCS_SIZE":"LARGE","APOAPSIS":"440.399","MEAN_MOTION":"15.42494554","OBJECT_NAME":"STARLINK-1898","CLASSIFICATION_TYPE":"U","EPHEMERIS_TYPE":"0","SITE":"AFETR"},{"INCLINATION":"53.0560","GP_ID":"191459016","PERIOD":"95.592","REF_FRAME":"TEME","CENTER_NAME":"EARTH","OBJECT_ID":"2020-074H","COUNTRY_CODE":"US","MEAN_MOTION_DOT":"0.00000906","MEAN_ELEMENT_THEORY":"SGP4","TLE_LINE1":"1 46746U 20074H   21344.69789516  .00000906  00000-0  79679-4 0  9992","DECAY_DATE":null,"MEAN_ANOMALY":"278.1535","REV_AT_EPOCH":"6305","TIME_SYSTEM":"UTC","BSTAR":"0.00007967900000","PERIAPSIS":"546.334","FILE":"3237005","EPOCH":"2021-12-10T16:44:58.141824","ARG_OF_PERICENTER":"81.9597","NORAD_CAT_ID":"46746","ECCENTRICITY":"0.00012660","ELEMENT_SET_NO":"999","SEMIMAJOR_AXIS":"6925.346","RA_OF_ASC_NODE":"79.7956","LAUNCH_DATE":"2020-10-24","TLE_LINE2":"2 46746  53.0560  79.7956 0001266  81.9597 278.1535 15.06400851 63050","OBJECT_TYPE":"PAYLOAD","CLASSIFICATION_TYPE":"U","SITE":"AFETR","EPHEMERIS_TYPE":"0","RCS_SIZE":"LARGE","MEAN_MOTION_DDOT":"0.0000000000000","APOAPSIS":"548.088","MEAN_MOTION":"15.06400851","OBJECT_NAME":"STARLINK-1905"}];
